GLOBALSTAR M094         
1 39074U 13005C   24340.49263297 -.00000086  00000+0  96541-4 0  9990
2 39074  51.9978  51.8586 0000681 149.2852 210.8055 12.62265794547914
GLOBALSTAR M078         
1 39076U 13005E   24340.32054200 -.00000097  00000+0  37473-4 0  9997
2 39076  51.9843 185.5174 0001881  99.7172 260.3907 12.62267372545437
GLOBALSTAR M087         
1 52888U 22064A   24340.26912644 -.00000057  00000+0  14542-3 0  9993
2 52888  51.9777 332.7954 0035598  28.5913 331.6927 13.30671961120405
